[{"OBJECT_NAME":"SDA_1677","OBJECT_ID":"2025-230P","EPOCH":"2026-03-09T17:45:54.981216","MEAN_MOTION":13.84685183,"ECCENTRICITY":0.00034516,"INCLINATION":81.2982,"RA_OF_ASC_NODE":303.9556,"ARG_OF_PERICENTER":66.1356,"MEAN_ANOMALY":294.0162,"EPHEMERIS_TYPE":0,"CLASSIFICATION_TYPE":"U","NORAD_CAT_ID":65987,"ELEMENT_SET_NO":999,"REV_AT_EPOCH":2004,"BSTAR":0.00016358526,"MEAN_MOTION_DOT":1.96e-6,"MEAN_MOTION_DDOT":0},{"OBJECT_NAME":"DELTA 1 DEB","OBJECT_ID":"1978-026T","EPOCH":"2026-03-09T13:43:49.509120","MEAN_MOTION":13.94749033,"ECCENTRICITY":0.00623262,"INCLINATION":99.3927,"RA_OF_ASC_NODE":300.9513,"ARG_OF_PERICENTER":72.4851,"MEAN_ANOMALY":349.3039,"EPHEMERIS_TYPE":0,"CLASSIFICATION_TYPE":"U","NORAD_CAT_ID":12178,"ELEMENT_SET_NO":999,"REV_AT_EPOCH":29120,"BSTAR":0.00026355916,"MEAN_MOTION_DOT":3.13e-6,"MEAN_MOTION_DDOT":0}]
